STARLINK-1448
1 15665C 20035J   21326.13437248  .00007272  00000-0  48716-3 0  3263
2 15665  53.0533 268.1375 0002044  60.3615  16.0458 15.06397098    13
